0 DELTA 1 R/B
1 03670U 69009B   13281.00064771  .00000224  00000-0  14085-3 0  4354
2 03670 088.4152 272.0673 1649408 150.8699 282.1948 11.42692782849426
0 DELTA 1 R/B
1 03670U 69009B   13289.42553027  .00000231  00000-0  14397-3 0  4371
2 03670 088.4161 271.1033 1649624 133.5129 019.6282 11.42697984850382
0 DELTA 1 R/B
1 03670U 69009B   13293.86461051  .00000394  00000-0  25522-3 0  4382
2 03670 088.4170 270.5954 1649661 124.3694 280.7291 11.42699353850892
